STARLINK-2501
1 48330U 21036BG  26061.16668981  .01557008  00000+0  75253-1 0  9998
2 48330  53.0897 135.2639 0000469 152.3578 182.8009 15.14790321  5827
STARLINK-2755
1 48479U 21040BD  26061.16668981  .01424445  00000+0  69439-1 0  9994
2 48479  53.0892 225.2636 0001354  69.3553 330.1393 15.14786970  5815
